OBJECT_NAME,OBJECT_ID,EPOCH,MEAN_MOTION,ECCENTRICITY,INCLINATION,RA_OF_ASC_NODE,ARG_OF_PERICENTER,MEAN_ANOMALY,EPHEMERIS_TYPE,CLASSIFICATION_TYPE,NORAD_CAT_ID,ELEMENT_SET_NO,REV_AT_EPOCH,BSTAR,MEAN_MOTION_DOT,MEAN_MOTION_DDOT
QB50P1,2014-033R,2026-06-09T12:06:43.799040,15.18143870,.0007224,98.0973,171.1125,246.0164,114.0312,0,U,40025,999,65186,.39023E-3,.7898E-4,0
DTUSAT-2,2014-033W,2026-06-09T05:54:09.749088,15.14916834,.0006102,98.0866,157.4695,258.5460,101.5086,0,U,40030,999,65148,.31024E-3,.5707E-4,0
QB50P2,2014-033Y,2026-06-09T12:07:24.006144,15.15061119,.0007196,98.0754,156.9078,187.9371,172.1746,0,U,40032,999,65150,.31341E-3,.5791E-4,0
PERSEUS-M1,2014-033AF,2026-06-09T08:12:55.575360,14.95609374,.001078,97.9644,104.3459,331.1893,28.8731,0,U,40039,999,64946,.14637E-3,.1566E-4,0
POLYITAN-1,2014-033AJ,2026-06-09T08:24:58.141152,15.32980503,.0008024,98.0953,185.8720,164.0960,196.0533,0,U,40042,999,65239,.53731E-3,.17064E-3,0
TIGRISAT,2014-033AK,2026-06-09T08:49:35.556960,14.85131645,.0050697,97.7823,310.5595,100.1646,260.5292,0,U,40043,999,64446,.24914E-3,.2126E-4,0
CANX-4,2014-034C,2026-06-09T09:12:18.891936,14.81250099,.001367,98.3132,35.4098,40.8785,319.3448,0,U,40055,999,64337,.11496E-3,.839E-5,0
CANX-5,2014-034D,2026-06-09T09:10:11.342208,14.81267261,.0013681,98.3135,35.4515,41.0004,319.2233,0,U,40056,999,63418,.11623E-3,.85E-5,0
GONETS-M 10,2014-036C,2026-06-09T12:05:51.478656,12.42945311,.002235,82.5111,312.4478,156.7693,203.4402,0,U,40063,999,54129,-.18038E-3,-.15E-6,0
METEOR-M 2,2014-037A,2026-06-09T13:02:36.130272,14.21460642,.0006985,98.5112,136.5527,62.5592,297.6295,0,U,40069,999,61823,.21952E-3,.438E-5,0
DX1,2014-037C,2026-06-09T12:06:02.511936,14.89961203,.0006037,98.3861,121.7397,305.8847,54.1807,0,U,40071,999,64496,.16406E-3,.1518E-4,0
UKUBE-1,2014-037F,2026-06-09T11:58:44.989248,15.13429238,.000215,98.4238,162.9637,144.6961,215.4410,0,U,40074,999,64739,.45635E-3,.8079E-4,0
GAOFEN-2,2014-049A,2026-06-09T12:59:18.356352,14.80891477,.0005882,98.0109,224.7556,257.4829,102.5725,0,U,40118,999,63810,.10377E-3,.748E-5,0
BRITE-PL2 (HEWELIUSZ),2014-049B,2026-06-09T06:32:05.755776,14.94568700,.0015166,97.9089,272.2120,132.0173,228.2341,0,U,40119,999,64026,.18289E-3,.1922E-4,0
CBERS 4,2014-079A,2026-06-09T12:13:31.888704,14.35507513,.0002008,98.3533,217.5818,71.2323,288.9081,0,U,40336,999,60285,.76633E-4,.178E-5,0
SMAP,2015-003A,2026-06-09T11:45:44.809344,14.63359858,.0001277,98.1276,167.6937,93.1257,267.0091,0,U,40376,999,60649,.87994E-4,.408E-5,0
GONETS-M 11,2015-020A,2026-06-09T12:31:48.715104,12.42877180,.0016958,82.4875,35.7679,21.8902,338.2899,0,U,40552,999,50778,.48609E-3,.77E-6,0
GONETS-M 12,2015-020B,2026-06-09T11:53:45.634848,12.42891125,.0015698,82.4908,36.9062,7.4293,352.7017,0,U,40553,999,50777,.28428E-3,.49E-6,0
GONETS-M 13,2015-020C,2026-06-09T11:15:23.246784,12.42870367,.0014043,82.4870,35.5402,353.1867,6.9020,0,U,40554,999,50774,.62799E-3,.97E-6,0
DMC3-FM1,2015-032A,2026-06-09T12:39:50.160096,14.85732237,.0007222,97.6473,26.0028,79.5607,280.6422,0,U,40715,999,58877,.12514E-3,.1035E-4,0
DMC3-FM2,2015-032B,2026-06-09T13:11:37.932576,14.85735187,.0007691,97.6528,27.5922,83.4362,276.7729,0,U,40716,999,58877,.30906E-4,.217E-5,0
DMC3-FM3,2015-032C,2026-06-09T12:08:09.898368,14.85723094,.0006818,97.6578,29.2978,83.9047,276.2946,0,U,40717,999,58877,.21802E-4,.138E-5,0
CARBONITE 1 (CBNT-1),2015-032D,2026-06-09T11:50:51.994176,14.83562119,.0013716,97.6511,338.8829,325.2750,34.7568,0,U,40718,999,58820,.11026E-3,.858E-5,0
LILACSAT-2,2015-049K,2026-06-09T11:12:59.433120,15.51188241,.0005263,97.4659,197.0165,282.5502,77.5161,0,U,40908,999,59455,.2726E-3,.15851E-3,0
COSMOS 2507 (RODNIK-S 13),2015-050A,2026-06-09T12:06:51.602688,12.42926833,.0010543,82.4919,84.4527,12.9277,347.2071,0,U,40920,999,48590,.4455E-3,.72E-6,0
COSMOS 2508 (RODNIK-S 14),2015-050B,2026-06-09T12:57:53.757792,12.42914237,.001537,82.4871,82.9386,42.5510,317.6758,0,U,40921,999,48589,.58067E-3,.9E-6,0
COSMOS 2509 (RODNIK-S 15),2015-050C,2026-06-09T11:30:59.669856,12.42883543,.0015835,82.4880,83.0778,58.6029,301.6597,0,U,40922,999,48592,.16032E-3,.32E-6,0
