QB50P1                  
1 40025U 14033R   26160.50467360  .00007898  00000+0  39023-3 0  9999
2 40025  98.0973 171.1125 0007224 246.0164 114.0312 15.18143870651861
DTUSAT-2                
1 40030U 14033W   26160.24594617  .00005707  00000+0  31024-3 0  9992
2 40030  98.0866 157.4695 0006102 258.5460 101.5086 15.14916834651489
QB50P2                  
1 40032U 14033Y   26160.50513896  .00005791  00000+0  31341-3 0  9998
2 40032  98.0754 156.9078 0007196 187.9371 172.1746 15.15061119651504
PERSEUS-M1              
1 40039U 14033AF  26160.34230990  .00001566  00000+0  14637-3 0  9993
2 40039  97.9644 104.3459 0010780 331.1893  28.8731 14.95609374649463
POLYITAN-1              
1 40042U 14033AJ  26160.35067293  .00017064  00000+0  53731-3 0  9990
2 40042  98.0953 185.8720 0008024 164.0960 196.0533 15.32980503652395
TIGRISAT                
1 40043U 14033AK  26160.36777265  .00002126  00000+0  24914-3 0  9993
2 40043  97.7823 310.5595 0050697 100.1646 260.5292 14.85131645644460
CANX-4                  
1 40055U 14034C   26160.38355199  .00000839  00000+0  11496-3 0  9997
2 40055  98.3132  35.4098 0013670  40.8785 319.3448 14.81250099643374
CANX-5                  
1 40056U 14034D   26160.38207572  .00000850  00000+0  11623-3 0  9994
2 40056  98.3135  35.4515 0013681  41.0004 319.2233 14.81267261634180
GONETS-M 10             
1 40063U 14036C   26160.50406804 -.00000015  00000+0 -18038-3 0  9999
2 40063  82.5111 312.4478 0022350 156.7693 203.4402 12.42945311541299
METEOR-M 2              
1 40069U 14037A   26160.54347373  .00000438  00000+0  21952-3 0  9991
2 40069  98.5112 136.5527 0006985  62.5592 297.6295 14.21460642618233
DX1                     
1 40071U 14037C   26160.50419574  .00001518  00000+0  16406-3 0  9991
2 40071  98.3861 121.7397 0006037 305.8847  54.1807 14.89961203644967
UKUBE-1                 
1 40074U 14037F   26160.49913182  .00008079  00000+0  45635-3 0  9991
2 40074  98.4238 162.9637 0002150 144.6961 215.4410 15.13429238647398
GAOFEN-2                
1 40118U 14049A   26160.54118468  .00000748  00000+0  10377-3 0  9993
2 40118  98.0109 224.7556 0005882 257.4829 102.5725 14.80891477638103
BRITE-PL2 (HEWELIUSZ)   
1 40119U 14049B   26160.27228884  .00001922  00000+0  18289-3 0  9993
2 40119  97.9089 272.2120 0015166 132.0173 228.2341 14.94568700640265
CBERS 4                 
1 40336U 14079A   26160.50939686  .00000178  00000+0  76633-4 0  9992
2 40336  98.3533 217.5818 0002008  71.2323 288.9081 14.35507513602850
SMAP                    
1 40376U 15003A   26160.49010196  .00000408  00000+0  87994-4 0  9996
2 40376  98.1276 167.6937 0001277  93.1257 267.0091 14.63359858606490
GONETS-M 11             
1 40552U 15020A   26160.52209161  .00000077  00000+0  48609-3 0  9998
2 40552  82.4875  35.7679 0016958  21.8902 338.2899 12.42877180507789
GONETS-M 12             
1 40553U 15020B   26160.49566707  .00000049  00000+0  28428-3 0  9993
2 40553  82.4908  36.9062 0015698   7.4293 352.7017 12.42891125507776
GONETS-M 13             
1 40554U 15020C   26160.46901906  .00000097  00000+0  62799-3 0  9997
2 40554  82.4870  35.5402 0014043 353.1867   6.9020 12.42870367507743
DMC3-FM1                
1 40715U 15032A   26160.52766389  .00001035  00000+0  12514-3 0  9993
2 40715  97.6473  26.0028 0007222  79.5607 280.6422 14.85732237588771
DMC3-FM2                
1 40716U 15032B   26160.54974459  .00000217  00000+0  30906-4 0  9992
2 40716  97.6528  27.5922 0007691  83.4362 276.7729 14.85735187588777
DMC3-FM3                
1 40717U 15032C   26160.50567012  .00000138  00000+0  21802-4 0  9999
2 40717  97.6578  29.2978 0006818  83.9047 276.2946 14.85723094588778
CARBONITE 1 (CBNT-1)    
1 40718U 15032D   26160.49365734  .00000858  00000+0  11026-3 0  9990
2 40718  97.6511 338.8829 0013716 325.2750  34.7568 14.83562119588200
LILACSAT-2              
1 40908U 15049K   26160.46735455  .00015851  00000+0  27260-3 0  9993
2 40908  97.4659 197.0165 0005263 282.5502  77.5161 15.51188241594553
COSMOS 2507 (RODNIK-S *)
1 40920U 15050A   26160.50476392  .00000072  00000+0  44550-3 0  9996
2 40920  82.4919  84.4527 0010543  12.9277 347.2071 12.42926833485901
COSMOS 2508 (RODNIK-S *)
1 40921U 15050B   26160.54020553  .00000090  00000+0  58067-3 0  9993
2 40921  82.4871  82.9386 0015370  42.5510 317.6758 12.42914237485893
COSMOS 2509 (RODNIK-S *)
1 40922U 15050C   26160.47985729  .00000032  00000+0  16032-3 0  9993
2 40922  82.4880  83.0778 0015835  58.6029 301.6597 12.42883543485923
